STARLINK-1762           
1 46342U 20062T   26068.28013643  .00013108  00000+0  45337-3 0  9995
2 46342  53.1598  12.8842 0001207  92.6573 267.4566 15.30238327304332
ION SCV-017             
1 63230U 25052W   26068.71648816  .00006457  00000+0  24539-3 0  9998
2 63230  97.4016 324.7516 0023746  44.9875 315.3282 15.26881798 54851
